#dP2018  8 31  0  0  0.00000000      96 __u+U ITR00 FIT  IAC
## 2016 432000.00000000   900.00000000 58361 0.0000000000000
+   88   C01C02C03C04C05C06C07C08C09C10C11C12C13C14E01E02E03
+        E04E05E07E08E09E11E12E14E18E19E24E26E30G01G02G03G04
+        G05G06G07G08G09G10G11G12G13G14G15G16G17G18G19G20G21
+        G22G23G24G25G26G27G28G29G30G31G32J01J02J03R01R02R03
+        R04R05R07R08R09R10R11R13R14R15R16R17R18R19R20R21R22
+        R23R24R26  0  0  0  0  0  0  0  0  0  0  0  0  0  0
++         0  0  0  0  0  0  0  0  0  0  0  0  0  0  0  0  0
++         0  0  0  0  0  0  0  0  0  0  0  0  0  0  0  0  0
++         0  0  0  0  0  0  0  0  0  0  0  0  0  0  0  0  0
++         0  0  0  0  0  0  0  0  0  0  0  0  0  0  0  0  0
++         0  0  0  0  0  0  0  0  0  0  0  0  0  0  0  0  0
++         0  0  0  0  0  0  0  0  0  0  0  0  0  0  0  0  0
%c M  cc GPS ccc cccc cccc cccc cccc ccccc ccccc ccccc ccccc
%c cc cc ccc ccc cccc cccc cccc cccc ccccc ccccc ccccc ccccc
%f  0.0000000  0.000000000  0.00000000000  0.000000000000000
%f  0.0000000  0.000000000  0.00000000000  0.000000000000000
%i    0    0    0    0      0      0      0      0         0
%i    0    0    0    0      0      0      0      0         0
/*                                                          
/*   RSA / INFORMATION & ANALYSIS CENTER (IAC) OF MCC       
/*   ULTRA-RAPID DETERMINATION                              
/* PCV:IGS14_2000 OL/AL:FES2004  NONE     YN ORB:CoN CLK:CoN
*  2018 08 31 20  0  0.00000000
PC01      0.000000      0.000000      0.000000 999999.999999
PC02   4354.373145  41923.001152  -1453.339219    712.430283
PC03 -14768.158128  39476.330150    113.228555    207.968246
PC04 -39638.754590  14418.837317    261.010697   -349.674620
PC05  21823.804188  36046.464806  -1148.060218    -90.618087
PC06 -10762.657791  37384.575234 -15519.297342    263.605111
PC07 -11865.359845  22825.141674  33544.128503     -0.887716
PC08 -26205.258785  28428.452538 -17072.495174    507.168848
PC09  -2749.168958  41839.472571  -2081.460848     74.400563
PC10   2988.969235  28169.307072  31471.922930    -35.896783
PC11 -19020.398551  15419.757993  13512.808938   -659.970250
PC12 -15215.800629  -4147.523761  23082.085162    585.818856
PC13 -12675.553243  29689.226801 -27259.653153   -254.558743
PC14 -15986.549435   4084.189256 -22453.571169    306.904733
PE01   4830.962139 -15475.631994 -24759.730360   -424.904058
PE02  -4771.169692  15501.412068  24765.913467     25.695296
PE03  -3480.741630  27129.484667 -11328.676326    -71.944174
PE04  -9697.735795 -27084.618259  -6960.680449   -107.827795
PE05 -14700.596085  11262.488262 -23086.906313    201.760778
PE07  17286.053163  11138.377636  21305.226200    -30.023229
PE08   9931.892029  26993.785439   7026.889708   6512.113751
PE09 -17247.990466 -11012.164583 -21372.252528   6690.004593
PE11 -21069.715401   -342.593755  20771.692212   4419.973686
PE12  -5012.096930 -16771.640444  23868.135752   4951.428291
PE14  -9075.866887 -15702.892158  16041.370414   6526.684669
PE18  17651.890361  11135.381755 -24501.051455   5941.109146
PE19   4620.369262 -26203.191190  12979.995370    -12.677367
PE24 -27942.700145  -9740.162022    811.974614   6517.509196
PE26  24464.815859 -15646.457506  -5709.898955   5529.987801
PE30  16388.832166  17912.801807  16932.728797   5550.459318
PG01   1937.125187  15047.514809 -21945.941011    -82.740215
PG02  18010.695180 -15707.765306  11912.625036     11.654807
PG03  10739.853151  21302.612823 -11776.799566    129.815623
PG04 -19621.428361  -2782.241400  17570.736208     94.073310
PG05   8417.400765 -13068.041685  21410.485342     -2.506663
PG06  25753.073548  -5848.475587  -2919.409706    369.494025
PG07  17937.745235   8217.452200  18229.269682    132.125787
PG08  -5624.944114  25869.993308    -22.406107   -113.569175
PG09   9148.101756  17431.469216  17792.527349    508.754990
PG10 -21778.809915  -7621.721581 -13261.264144    184.434924
PG11  -1565.816177  20121.508608 -17916.521799   -721.207963
PG12  -5060.170020 -20831.772081 -15988.663766    310.183081
PG13  12660.946999 -22480.110523   6170.164570    -90.025888
PG14 -16280.615440  10944.458515 -17518.053699    -97.478050
PG15    623.033679 -26059.853380  -4082.549830   -347.115955
PG16 -10401.748685  10225.515777  22029.632784     11.116131
PG17  15045.906393   -591.543327 -21474.348623    -61.061886
PG18  -7818.431658  17211.220081 -19068.811922     52.027957
PG19  16470.630067 -11030.333433 -18043.645574   -406.854085
PG20 -22753.541386 -13270.509969  -3931.045295    515.072286
PG21 -20592.116774  -5358.170541  16665.579545   -344.128425
PG22   3894.021688  19811.072626 -17035.450471   -505.811529
PG23   3121.997234  23830.535650  11128.213871   -211.770112
PG24   2335.658667 -16731.086825 -20550.910968    -54.741972
PG25 -17019.677419 -20117.947615  -4390.115371   -640.090132
PG26 -17873.812186   2522.988711  19522.140412    -34.404695
PG27 -11998.698000  21084.436178  10415.677597    349.232361
PG28  20603.750989  11880.594050 -11145.525883    741.702538
PG29  -6618.879595 -18736.028395  17597.627035    385.367483
PG30  24633.443716   1351.878898  10085.009572     30.261602
PG31 -25948.907717   6649.237463   -570.021491     96.772880
PG32 -15748.043887   1810.141675 -21256.652214   -436.725188
PJ01 -17287.252343  24562.681695 -24982.519424   -121.711148
PJ02 -31024.235520  21883.435636  23065.446723     -5.475307
PJ03 -28576.667786  27180.032031  19893.515019     -0.030657
PR01  -1183.364538 -21389.886273  13837.241024     31.331593
PR02 -11127.687054 -22275.067856  -5617.300077    327.466003
PR03 -13412.118613  -9009.542192 -19713.509643    142.017604
PR04  -7554.729191   9967.261505 -22212.428866    274.515514
PR05   2370.350804  22321.250154 -12087.817559      9.539053
PR07  13357.323096   8462.084972  20039.023979    -46.050379
PR08   7934.783158  -9300.910285  22439.830088     21.529951
PR09  16949.389665  10758.405210  15800.049412     26.052822
PR10  25124.580713   4668.894481    293.471880     30.801440
PR11  19051.253608  -4619.070793 -16332.681349    -39.429571
PR13 -16744.703550 -10377.303398 -16207.353571    -14.192221
PR14 -25081.342452  -4564.709687   -397.346227     30.585613
PR15 -21836.640812   2232.831397  13084.942538    -15.579114
PR16  -2819.500361  10678.740406  22979.571469    100.614576
PR17 -14608.698463   2563.662633  20766.433549    160.546177
PR18 -18131.698477  15928.850896   8181.244573     25.266526
PR19 -12212.850816  20420.769792  -9208.352920    -58.799751
PR20   2222.047212  12604.879432 -22055.993034   -350.641914
PR21  14712.441544  -2934.662377 -20626.692207     -0.933215
PR22  17965.632603 -17174.724575  -6013.205089    -60.740497
PR23   9085.363121 -20001.659147  12947.012394    175.409923
PR24  -3343.640636 -11783.252216  22345.141028   -170.792995
PR26   1457.029716  13524.184625 -21578.195797     44.497617
EOF
